OBJECT_NAME,OBJECT_ID,EPOCH,MEAN_MOTION,ECCENTRICITY,INCLINATION,RA_OF_ASC_NODE,ARG_OF_PERICENTER,MEAN_ANOMALY,EPHEMERIS_TYPE,CLASSIFICATION_TYPE,NORAD_CAT_ID,ELEMENT_SET_NO,REV_AT_EPOCH,BSTAR,MEAN_MOTION_DOT,MEAN_MOTION_DDOT
STARLINK-31710,2024-062E,2026-07-19T10:37:43.911840,15.34388672,.00014023,53.1601,2.2519,84.3479,275.7684,0,U,59378,999,12982,.7767826E-5,-.114E-5,0
STARLINK-31698,2024-062F,2026-07-18T20:15:23.334048,15.34394558,.00012006,53.1627,4.9305,65.0047,295.1081,0,U,59379,999,12973,.64085129E-4,.1789E-4,0
STARLINK-31680,2024-062G,2026-07-18T20:13:11.541216,15.34387492,.00010346,53.1619,7.0348,106.2726,253.8391,0,U,59380,999,12970,.39111479E-4,.945E-5,0
STARLINK-31713,2024-062H,2026-07-19T11:39:00.620640,15.34388000,.00010754,53.1617,3.9394,96.3314,263.7811,0,U,59381,999,12980,.47184815E-4,.1218E-4,0
STARLINK-31705,2024-062J,2026-07-19T10:46:49.361952,15.34383611,.00011875,53.1608,2.2901,88.9581,271.1557,0,U,59382,999,12982,.1861044E-4,.252E-5,0
STARLINK-31715,2024-062L,2026-07-19T11:17:08.521728,15.34378586,.00015483,53.1600,2.4237,97.9175,262.2004,0,U,59384,999,12986,-.29739317E-4,-.138E-4,0
STARLINK-31717,2024-062M,2026-07-19T04:19:31.097856,15.34388556,.00010801,53.1595,3.4561,95.2759,264.8367,0,U,59385,999,12981,.23394933E-4,.414E-5,0
STARLINK-31688,2024-062N,2026-07-19T11:48:05.858208,15.34392869,.00009716,53.1609,3.9787,97.2212,262.8901,0,U,59386,999,12980,.25043802E-4,.47E-5,0
STARLINK-31714,2024-062P,2026-07-19T04:10:25.944960,15.34388682,.00008732,53.1610,3.4167,89.3296,270.7807,0,U,59387,999,12977,.50997831E-4,.1347E-4,0
STARLINK-31643,2024-062Q,2026-07-19T04:13:27.601824,15.34389094,.00013058,53.1613,3.4303,88.5215,271.5937,0,U,59388,999,12982,-.5656623E-5,-.567E-5,0
STARLINK-31647,2024-062R,2026-07-19T11:35:18.299616,15.34393258,.00012965,53.1620,2.5373,97.7480,262.3669,0,U,59389,999,12986,.3593805E-4,.838E-5,0
STARLINK-31649,2024-062S,2026-07-18T20:45:41.186592,15.34390135,.00014623,53.1593,5.0463,76.6805,283.4361,0,U,59390,999,12977,-.16006731E-4,-.917E-5,0
STARLINK-31644,2024-062T,2026-07-19T11:02:46.635072,15.34389556,.00012242,53.1614,4.4906,120.8607,239.2516,0,U,59391,999,12983,-.7086036E-5,-.615E-5,0
STARLINK-31626,2024-062U,2026-07-19T11:26:12.415776,15.34394854,.00008739,53.1631,2.4599,90.1114,269.9989,0,U,59392,999,12986,-.2470697E-5,-.459E-5,0
STARLINK-31443,2024-062V,2026-07-19T10:33:52.103232,15.34384322,.00007752,53.1623,348.5623,91.1592,268.9499,0,U,59393,999,13005,-.3410126E-5,-.491E-5,0
STARLINK-31607,2024-062W,2026-07-19T11:08:02.351040,15.34376351,.00011197,53.1600,2.3794,84.2512,275.8618,0,U,59394,999,12985,.19080835E-3,.6071E-4,0
YAOGAN-42 01,2024-063A,2026-07-19T14:36:25.911936,15.23042203,.00038734,34.9981,281.9407,251.5976,108.4318,0,U,59395,999,12779,.18344723E-3,.4391E-4,0
STARLINK-31608,2024-062X,2026-07-19T10:10:35.674464,15.34392695,.00014879,53.1608,2.8421,103.5230,256.5938,0,U,59397,999,12980,.8242973E-5,-.98E-6,0
STARLINK-31534,2024-064A,2026-07-19T14:20:01.750272,15.27574115,.00013998,43.0036,30.8589,252.5037,107.5662,0,U,59398,999,12934,.3294397E-5,-.172E-5,0
STARLINK-31544,2024-064B,2026-07-19T12:25:43.844448,15.27571195,.0001106,43.0044,31.9861,262.0818,97.9908,0,U,59399,999,12938,.29945174E-4,.562E-5,0
STARLINK-31545,2024-064C,2026-07-19T13:02:31.322112,15.27579220,.00011493,43.0010,31.3144,269.8326,90.2394,0,U,59400,999,12939,.21814808E-4,.338E-5,0
STARLINK-31507,2024-064D,2026-07-19T13:11:46.487040,15.27575035,.00009728,43.0011,31.3594,274.0610,86.0130,0,U,59401,999,12933,.11476336E-4,.54E-6,0
STARLINK-31543,2024-064E,2026-07-19T13:48:49.602240,15.27547795,.00013694,43.0070,31.5583,272.9799,87.0896,0,U,59402,999,12939,-.73050644E-4,-.227E-4,0
STARLINK-31366,2024-064F,2026-07-19T13:28:25.487904,15.27577860,.00011317,43.0017,31.4505,270.4312,89.6410,0,U,59403,999,12939,.34323431E-4,.683E-5,0
STARLINK-31374,2024-064G,2026-07-19T09:50:26.501280,15.27590284,.0001278,43.0018,341.2259,262.0961,97.9746,0,U,59404,999,12970,.61224238E-4,.1423E-4,0
STARLINK-31400,2024-064H,2026-07-19T12:51:24.918912,15.27581897,.00013538,43.0023,31.2532,259.2212,100.8487,0,U,59405,999,12939,.38884028E-4,.808E-5,0
STARLINK-31391,2024-064J,2026-07-19T12:57:01.006272,15.27549604,.00010757,43.0017,31.2827,264.8224,95.2505,0,U,59406,999,12939,-.7774223E-4,-.2399E-4,0
STARLINK-31387,2024-064K,2026-07-19T12:20:10.762080,15.27578450,.0001041,43.0047,31.9560,272.7318,87.3415,0,U,59407,999,12938,.5474044E-5,-.111E-5,0
STARLINK-31396,2024-064M,2026-07-19T13:13:52.078944,15.27587428,.00008642,43.0045,20.9814,288.0522,72.0236,0,U,59409,999,12945,-.1526594E-3,-.4461E-4,0
STARLINK-31412,2024-064N,2026-07-18T20:07:09.106176,15.27576311,.00013337,43.0029,35.4790,272.1875,87.8824,0,U,59410,999,12928,.2333461E-5,-.198E-5,0
