STARLINK-31710          
1 59378U 24062E   26200.44286935 -.00000114  00000+0  77678-5 0  9993
2 59378  53.1601   2.2519 0001402  84.3479 275.7684 15.34388672129829
STARLINK-31698          
1 59379U 24062F   26199.84402007  .00001789  00000+0  64085-4 0  9990
2 59379  53.1627   4.9305 0001200  65.0047 295.1081 15.34394558129730
STARLINK-31680          
1 59380U 24062G   26199.84249469  .00000945  00000+0  39111-4 0  9998
2 59380  53.1619   7.0348 0001034 106.2726 253.8391 15.34387492129702
STARLINK-31713          
1 59381U 24062H   26200.48542385  .00001218  00000+0  47185-4 0  9999
2 59381  53.1617   3.9394 0001075  96.3314 263.7811 15.34388000129808
STARLINK-31705          
1 59382U 24062J   26200.44918243  .00000252  00000+0  18610-4 0  9994
2 59382  53.1608   2.2901 0001187  88.9581 271.1557 15.34383611129827
STARLINK-31715          
1 59384U 24062L   26200.47023752 -.00001380  00000+0 -29739-4 0  9990
2 59384  53.1600   2.4237 0001548  97.9175 262.2004 15.34378586129862
STARLINK-31717          
1 59385U 24062M   26200.18022104  .00000414  00000+0  23395-4 0  9996
2 59385  53.1595   3.4561 0001080  95.2759 264.8367 15.34388556129810
STARLINK-31688          
1 59386U 24062N   26200.49173447  .00000470  00000+0  25044-4 0  9993
2 59386  53.1609   3.9787 0000971  97.2212 262.8901 15.34392869129809
STARLINK-31714          
1 59387U 24062P   26200.17391140  .00001347  00000+0  50998-4 0  9991
2 59387  53.1610   3.4167 0000873  89.3296 270.7807 15.34388682129771
STARLINK-31643          
1 59388U 24062Q   26200.17601391 -.00000567  00000+0 -56566-5 0  9997
2 59388  53.1613   3.4303 0001305  88.5215 271.5937 15.34389094129827
STARLINK-31647          
1 59389U 24062R   26200.48285069  .00000838  00000+0  35938-4 0  9990
2 59389  53.1620   2.5373 0001296  97.7480 262.3669 15.34393258129869
STARLINK-31649          
1 59390U 24062S   26199.86506003 -.00000917  00000+0 -16007-4 0  9991
2 59390  53.1593   5.0463 0001462  76.6805 283.4361 15.34390135129774
STARLINK-31644          
1 59391U 24062T   26200.46026198 -.00000615  00000+0 -70860-5 0  9996
2 59391  53.1614   4.4906 0001224 120.8607 239.2516 15.34389556129835
STARLINK-31626          
1 59392U 24062U   26200.47653259 -.00000459  00000+0 -24707-5 0  9997
2 59392  53.1631   2.4599 0000873  90.1114 269.9989 15.34394854129866
STARLINK-31443          
1 59393U 24062V   26200.44018638 -.00000491  00000+0 -34101-5 0  9996
2 59393  53.1623 348.5623 0000775  91.1592 268.9499 15.34384322130059
STARLINK-31607          
1 59394U 24062W   26200.46391610  .00006071  00000+0  19081-3 0  9999
2 59394  53.1600   2.3794 0001119  84.2512 275.8618 15.34376351129856
YAOGAN-42 01            
1 59395U 24063A   26200.60863324  .00004391  00000+0  18345-3 0  9998
2 59395  34.9981 281.9407 0003873 251.5976 108.4318 15.23042203127797
STARLINK-31608          
1 59397U 24062X   26200.42402401 -.00000098  00000+0  82430-5 0  9993
2 59397  53.1608   2.8421 0001487 103.5230 256.5938 15.34392695129804
STARLINK-31534          
1 59398U 24064A   26200.59724248 -.00000172  00000+0  32944-5 0  9998
2 59398  43.0036  30.8589 0001399 252.5037 107.5662 15.27574115129345
STARLINK-31544          
1 59399U 24064B   26200.51786857  .00000562  00000+0  29945-4 0  9993
2 59399  43.0044  31.9861 0001106 262.0818  97.9908 15.27571195129383
STARLINK-31545          
1 59400U 24064C   26200.54341808  .00000338  00000+0  21815-4 0  9991
2 59400  43.0010  31.3144 0001149 269.8326  90.2394 15.27579220129396
STARLINK-31507          
1 59401U 24064D   26200.54984360  .00000054  00000+0  11476-4 0  9995
2 59401  43.0011  31.3594 0000972 274.0610  86.0130 15.27575035129339
STARLINK-31543          
1 59402U 24064E   26200.57557410 -.00002270  00000+0 -73051-4 0  9992
2 59402  43.0070  31.5583 0001369 272.9799  87.0896 15.27547795129399
STARLINK-31366          
1 59403U 24064F   26200.56140611  .00000683  00000+0  34323-4 0  9996
2 59403  43.0017  31.4505 0001131 270.4312  89.6410 15.27577860129391
STARLINK-31374          
1 59404U 24064G   26200.41002895  .00001423  00000+0  61224-4 0  9995
2 59404  43.0018 341.2259 0001278 262.0961  97.9746 15.27590284129704
STARLINK-31400          
1 59405U 24064H   26200.53570508  .00000808  00000+0  38884-4 0  9992
2 59405  43.0023  31.2532 0001353 259.2212 100.8487 15.27581897129393
STARLINK-31391          
1 59406U 24064J   26200.53959498 -.00002399  00000+0 -77742-4 0  9997
2 59406  43.0017  31.2827 0001075 264.8224  95.2505 15.27549604129398
STARLINK-31387          
1 59407U 24064K   26200.51401345 -.00000111  00000+0  54740-5 0  9992
2 59407  43.0047  31.9560 0001041 272.7318  87.3415 15.27578450129380
STARLINK-31396          
1 59409U 24064M   26200.55129721 -.00004461  00000+0 -15266-3 0  9994
2 59409  43.0045  20.9814 0000864 288.0522  72.0236 15.27587428129454
STARLINK-31412          
1 59410U 24064N   26199.83829984 -.00000198  00000+0  23335-5 0  9992
2 59410  43.0029  35.4790 0001333 272.1875  87.8824 15.27576311129286
